{
  "norad_id": 62046,
  "name": "STARLINK-32598",
  "history": [
    {
      "epoch": "2026-03-28T20:44:13.188192Z",
      "apogee_km": 483.5261208237216,
      "perigee_km": 482.4983206704537,
      "latitude_deg": 5.398622494334275e-06,
      "longitude_deg": 10.227480851098962,
      "height_km": 482.67443225446885,
      "semi_major_axis_km": 6861.149220747087,
      "eccentricity": 7.49e-05,
      "inclination_deg": 43.0019,
      "raan_deg": 147.5608,
      "arg_perigee_deg": 282.8317,
      "mean_anomaly_deg": 77.2451,
      "mean_motion_rev_day": 15.27592315
    }
  ]
}